[{"OBJECT_NAME":"KUIPER-00176","OBJECT_ID":"2025-217AC","EPOCH":"2026-03-09T22:52:35.140800","MEAN_MOTION":14.7992947,"ECCENTRICITY":6.934e-5,"INCLINATION":51.9002,"RA_OF_ASC_NODE":41.9321,"ARG_OF_PERICENTER":103.7667,"MEAN_ANOMALY":256.3372,"EPHEMERIS_TYPE":0,"CLASSIFICATION_TYPE":"U","NORAD_CAT_ID":65788,"ELEMENT_SET_NO":999,"REV_AT_EPOCH":2491,"BSTAR":0.00055994201,"MEAN_MOTION_DOT":4.05e-5,"MEAN_MOTION_DDOT":0},{"OBJECT_NAME":"SL-14 R\/B","OBJECT_ID":"1987-062B","EPOCH":"2026-03-09T17:34:43.294656","MEAN_MOTION":14.85636456,"ECCENTRICITY":0.00206459,"INCLINATION":82.5145,"RA_OF_ASC_NODE":173.2193,"ARG_OF_PERICENTER":55.7426,"MEAN_ANOMALY":58.5002,"EPHEMERIS_TYPE":0,"CLASSIFICATION_TYPE":"U","NORAD_CAT_ID":18215,"ELEMENT_SET_NO":999,"REV_AT_EPOCH":6751,"BSTAR":7.5075343e-5,"MEAN_MOTION_DOT":6.77e-6,"MEAN_MOTION_DDOT":0}]
